STARLINK-31753          
1 59484U 24071A   26068.15951413 -.00001523  00000+0 -45806-4 0  9994
2 59484  43.0044 342.8115 0002222 258.3159 101.7443 15.27589882108129
TRANSPORTER-12 OBJECT BT
1 62674U 25009BT  26068.71416991  .00013824  00000+0  51029-3 0  9998
2 62674  97.4094 151.5992 0003682 313.5044  46.5889 15.27872239121360
